[{"OBJECT_NAME":"STARLINK-4189","OBJECT_ID":"2022-062Z","EPOCH":"2026-03-09T11:51:54.504576","MEAN_MOTION":15.088298,"ECCENTRICITY":0.0001274,"INCLINATION":53.2173,"RA_OF_ASC_NODE":24.9711,"ARG_OF_PERICENTER":102.4564,"MEAN_ANOMALY":257.6571,"EPHEMERIS_TYPE":0,"CLASSIFICATION_TYPE":"U","NORAD_CAT_ID":52853,"ELEMENT_SET_NO":999,"REV_AT_EPOCH":20589,"BSTAR":5.0514e-5,"MEAN_MOTION_DOT":5.16e-6,"MEAN_MOTION_DDOT":0},{"OBJECT_NAME":"JILIN-01 KUANFU 02B 6","OBJECT_ID":"2024-169F","EPOCH":"2026-03-09T21:43:38.712288","MEAN_MOTION":15.09238946,"ECCENTRICITY":0.00150747,"INCLINATION":97.5549,"RA_OF_ASC_NODE":159.9459,"ARG_OF_PERICENTER":324.4254,"MEAN_ANOMALY":35.5968,"EPHEMERIS_TYPE":0,"CLASSIFICATION_TYPE":"U","NORAD_CAT_ID":61194,"ELEMENT_SET_NO":999,"REV_AT_EPOCH":8086,"BSTAR":0.00036442477,"MEAN_MOTION_DOT":5.751e-5,"MEAN_MOTION_DDOT":0}]
